{"type": "FeatureCollection", "features": [ {"type": "Feature", "properties": {"norad_id": 41469, "name": "IRNSS-1G", "group": "gnss", "lat": 0.6557320032410239, "lon": -86.17767449235171, "alt_km": 35794.37681959745, "timestamp": "2025-12-15T04:01:20.695663+00:00", "meta": {"OBJECT_NAME": "IRNSS-1G", "OBJECT_ID": "2016-027A", "EPOCH": "2025-12-14T07:11:03.288768", "MEAN_MOTION": 1.0027942, "ECCENTRICITY": 0.00025714, "INCLINATION": 4.7376, "RA_OF_ASC_NODE": 102.0573, "ARG_OF_PERICENTER": 334.2888, "MEAN_ANOMALY": 244.0082, "EPHEMERIS_TYPE": 0, "CLASSIFICATION_TYPE": "U", "NORAD_CAT_ID": 41469, "ELEMENT_SET_NO": 999, "REV_AT_EPOCH": 3532, "BSTAR": 0, "MEAN_MOTION_DOT": -3.17e-06, "MEAN_MOTION_DDOT": 0}, "tle": {"line1": "1 41469U 16027A   25348.29934362 -.00000317  00000+0  00000+0 0  9990", "line2": "2 41469   4.7376 102.0573 0002571 334.2888 244.0082  1.00279420 35320"}}, "geometry": {"type": "Point", "coordinates": [-86.17767449235171, 0.6557320032410239]}}, {"type": "Feature", "properties": {"norad_id": 41549, "name": "GSAT0211 (GALILEO 14)", "group": "gnss", "lat": -14.113339502631534, "lon": -143.3147113392388, "alt_km": 23214.410814182298, "timestamp": "2025-12-15T04:01:20.695675+00:00", "meta": {"OBJECT_NAME": "GSAT0211 (GALILEO 14)", "OBJECT_ID": "2016-030A", "EPOCH": "2025-12-11T02:09:03.353760", "MEAN_MOTION": 1.70473055, "ECCENTRICITY": 0.00041282, "INCLINATION": 55.1527, "RA_OF_ASC_NODE": 226.8689, "ARG_OF_PERICENTER": 18.4657, "MEAN_ANOMALY": 341.6286, "EPHEMERIS_TYPE": 0, "CLASSIFICATION_TYPE": "U", "NORAD_CAT_ID": 41549, "ELEMENT_SET_NO": 999, "REV_AT_EPOCH": 5946, "BSTAR": 0, "MEAN_MOTION_DOT": 9e-08, "MEAN_MOTION_DDOT": 0}, "tle": {"line1": "1 41549U 16030A   25345.08962215  .00000009  00000+0  00000+0 0  9992", "line2": "2 41549  55.1527 226.8689 0004128  18.4657 341.6286  1.70473055 59463"}}, "geometry": {"type": "Point", "coordinates": [-143.3147113392388, -14.113339502631534]}}, {"type": "Feature", "properties": {"norad_id": 41550, "name": "GSAT0210 (GALILEO 13)", "group": "gnss", "lat": -3.9348732926943417, "lon": 49.506509666530945, "alt_km": 23221.056882384753, "timestamp": "2025-12-15T04:01:20.695688+00:00", "meta": {"OBJECT_NAME": "GSAT0210 (GALILEO 13)", "OBJECT_ID": "2016-030B", "EPOCH": "2025-12-13T16:38:25.135008", "MEAN_MOTION": 1.70473753, "ECCENTRICITY": 0.00013525, "INCLINATION": 55.1513, "RA_OF_ASC_NODE": 226.7953, "ARG_OF_PERICENTER": 245.9786, "MEAN_ANOMALY": 114.0887, "EPHEMERIS_TYPE": 0, "CLASSIFICATION_TYPE": "U", "NORAD_CAT_ID": 41550, "ELEMENT_SET_NO": 999, "REV_AT_EPOCH": 5950, "BSTAR": 0, "MEAN_MOTION_DOT": 2.5e-07, "MEAN_MOTION_DDOT": 0}, "tle": {"line1": "1 41550U 16030B   25347.69334647  .00000025  00000+0  00000+0 0  9993", "line2": "2 41550  55.1513 226.7953 0001352 245.9786 114.0887  1.70473753 59508"}}, "geometry": {"type": "Point", "coordinates": [49.506509666530945, -3.9348732926943417]}}, {"type": "Feature", "properties": {"norad_id": 41586, "name": "BEIDOU-2 G7 (C03)", "group": "gnss", "lat": -0.23736685884450975, "lon": -105.22787015492155, "alt_km": 35806.939899103214, "timestamp": "2025-12-15T04:01:20.695700+00:00", "meta": {"OBJECT_NAME": "BEIDOU-2 G7 (C03)", "OBJECT_ID": "2016-037A", "EPOCH": "2025-12-13T15:41:15.400608", "MEAN_MOTION": 1.00266893, "ECCENTRICITY": 0.00045907, "INCLINATION": 1.7596, "RA_OF_ASC_NODE": 67.775, "ARG_OF_PERICENTER": 358.4711, "MEAN_ANOMALY": 2.0592, "EPHEMERIS_TYPE": 0, "CLASSIFICATION_TYPE": "U", "NORAD_CAT_ID": 41586, "ELEMENT_SET_NO": 999, "REV_AT_EPOCH": 502, "BSTAR": 0, "MEAN_MOTION_DOT": -3.38e-06, "MEAN_MOTION_DDOT": 0}, "tle": {"line1": "1 41586U 16037A   25347.65365047 -.00000338  00000+0  00000+0 0  9991", "line2": "2 41586   1.7596  67.7750 0004590 358.4711   2.0592  1.00266893  5023"}}, "geometry": {"type": "Point", "coordinates": [-105.22787015492155, -0.23736685884450975]}}, {"type": "Feature", "properties": {"norad_id": 41589, "name": "EUTELSAT 117 WEST B (WAAS/PRN 131)", "group": "gnss", "lat": -0.008765220914410473, "lon": 27.41135007884502, "alt_km": 35786.40386115742, "timestamp": "2025-12-15T04:01:20.695713+00:00", "meta": {"OBJECT_NAME": "EUTELSAT 117 WEST B (WAAS/PRN 131)", "OBJECT_ID": "2016-038B", "EPOCH": "2025-12-14T06:02:39.838272", "MEAN_MOTION": 1.0027082, "ECCENTRICITY": 6.6e-06, "INCLINATION": 0.0106, "RA_OF_ASC_NODE": 154.7205, "ARG_OF_PERICENTER": 341.1575, "MEAN_ANOMALY": 280.9745, "EPHEMERIS_TYPE": 0, "CLASSIFICATION_TYPE": "U", "NORAD_CAT_ID": 41589, "ELEMENT_SET_NO": 999, "REV_AT_EPOCH": 3480, "BSTAR": 0, "MEAN_MOTION_DOT": 6e-08, "MEAN_MOTION_DDOT": 0}, "tle": {"line1": "1 41589U 16038B   25348.25184998  .00000006  00000+0  00000+0 0  9997", "line2": "2 41589   0.0106 154.7205 0000066 341.1575 280.9745  1.00270820 34808"}}, "geometry": {"type": "Point", "coordinates": [27.41135007884502, -0.008765220914410473]}}, {"type": "Feature", "properties": {"norad_id": 41859, "name": "GSAT0207 (GALILEO 15)", "group": "gnss", "lat": 11.492668432731548, "lon": 114.23545953704647, "alt_km": 23216.79560030226, "timestamp": "2025-12-15T04:01:20.695738+00:00", "meta": {"OBJECT_NAME": "GSAT0207 (GALILEO 15)", "OBJECT_ID": "2016-069A", "EPOCH": "2025-12-13T09:14:27.730752", "MEAN_MOTION": 1.70474447, "ECCENTRICITY": 0.00022423, "INCLINATION": 55.3826, "RA_OF_ASC_NODE": 106.2323, "ARG_OF_PERICENTER": 321.9482, "MEAN_ANOMALY": 38.0041, "EPHEMERIS_TYPE": 0, "CLASSIFICATION_TYPE": "U", "NORAD_CAT_ID": 41859, "ELEMENT_SET_NO": 999, "REV_AT_EPOCH": 5623, "BSTAR": 0, "MEAN_MOTION_DOT": 0, "MEAN_MOTION_DDOT": 0}, "tle": {"line1": "1 41859U 16069A   25347.38504318  .00000000  00000+0  00000+0 0  9990", "line2": "2 41859  55.3826 106.2323 0002242 321.9482  38.0041  1.70474447 56234"}}, "geometry": {"type": "Point", "coordinates": [114.23545953704647, 11.492668432731548]}}, {"type": "Feature", "properties": {"norad_id": 41860, "name": "GSAT0212 (GALILEO 16)", "group": "gnss", "lat": 53.03341409383692, "lon": -140.32273391952114, "alt_km": 23214.42164232492, "timestamp": "2025-12-15T04:01:20.695761+00:00", "meta": {"OBJECT_NAME": "GSAT0212 (GALILEO 16)", "OBJECT_ID": "2016-069B", "EPOCH": "2025-12-11T11:29:42.448992", "MEAN_MOTION": 1.70474595, "ECCENTRICITY": 0.00021636, "INCLINATION": 55.3791, "RA_OF_ASC_NODE": 106.2805, "ARG_OF_PERICENTER": 27.6057, "MEAN_ANOMALY": 332.3763, "EPHEMERIS_TYPE": 0, "CLASSIFICATION_TYPE": "U", "NORAD_CAT_ID": 41860, "ELEMENT_SET_NO": 999, "REV_AT_EPOCH": 5645, "BSTAR": 0, "MEAN_MOTION_DOT": 8e-08, "MEAN_MOTION_DDOT": 0}, "tle": {"line1": "1 41860U 16069B   25345.47896353  .00000008  00000+0  00000+0 0  9991", "line2": "2 41860  55.3791 106.2805 0002163  27.6057 332.3763  1.70474595 56451"}}, "geometry": {"type": "Point", "coordinates": [-140.32273391952114, 53.03341409383692]}}, {"type": "Feature", "properties": {"norad_id": 41861, "name": "GSAT0213 (GALILEO 17)", "group": "gnss", "lat": -44.404525917842584, "lon": -31.30329357253946, "alt_km": 23222.15392489821, "timestamp": "2025-12-15T04:01:20.695840+00:00", "meta": {"OBJECT_NAME": "GSAT0213 (GALILEO 17)", "OBJECT_ID": "2016-069C", "EPOCH": "2025-12-14T04:37:41.330208", "MEAN_MOTION": 1.70474935, "ECCENTRICITY": 0.00024236, "INCLINATION": 55.3829, "RA_OF_ASC_NODE": 106.2129, "ARG_OF_PERICENTER": 283.222, "MEAN_ANOMALY": 76.7169, "EPHEMERIS_TYPE": 0, "CLASSIFICATION_TYPE": "U", "NORAD_CAT_ID": 41861, "ELEMENT_SET_NO": 999, "REV_AT_EPOCH": 5636, "BSTAR": 0, "MEAN_MOTION_DOT": -4e-08, "MEAN_MOTION_DDOT": 0}, "tle": {"line1": "1 41861U 16069C   25348.19283947 -.00000004  00000+0  00000+0 0  9990", "line2": "2 41861  55.3829 106.2129 0002423 283.2220  76.7169  1.70474935 56361"}}, "geometry": {"type": "Point", "coordinates": [-31.30329357253946, -44.404525917842584]}}, {"type": "Feature", "properties": {"norad_id": 41862, "name": "GSAT0214 (GALILEO 18)", "group": "gnss", "lat": 25.35166638868255, "lon": -92.92066307961336, "alt_km": 23222.215086922366, "timestamp": "2025-12-15T04:01:20.695862+00:00", "meta": {"OBJECT_NAME": "GSAT0214 (GALILEO 18)", "OBJECT_ID": "2016-069D", "EPOCH": "2025-12-12T13:53:54.735936", "MEAN_MOTION": 1.70474744, "ECCENTRICITY": 0.00013694, "INCLINATION": 55.3802, "RA_OF_ASC_NODE": 106.2504, "ARG_OF_PERICENTER": 290.3791, "MEAN_ANOMALY": 69.576, "EPHEMERIS_TYPE": 0, "CLASSIFICATION_TYPE": "U", "NORAD_CAT_ID": 41862, "ELEMENT_SET_NO": 999, "REV_AT_EPOCH": 5646, "BSTAR": 0, "MEAN_MOTION_DOT": 4e-08, "MEAN_MOTION_DDOT": 0}, "tle": {"line1": "1 41862U 16069D   25346.57910574  .00000004  00000+0  00000+0 0  9993", "line2": "2 41862  55.3802 106.2504 0001369 290.3791  69.5760  1.70474744 56466"}}, "geometry": {"type": "Point", "coordinates": [-92.92066307961336, 25.35166638868255]}}, {"type": "Feature", "properties": {"norad_id": 42709, "name": "SES-15 (WAAS/PRN 133)", "group": "gnss", "lat": 0.021379484048733202, "lon": 15.212901288517958, "alt_km": 35786.30512383115, "timestamp": "2025-12-15T04:01:20.695881+00:00", "meta": {"OBJECT_NAME": "SES-15 (WAAS/PRN 133)", "OBJECT_ID": "2017-026A", "EPOCH": "2025-12-14T05:57:25.339680", "MEAN_MOTION": 1.00268577, "ECCENTRICITY": 2.957e-05, "INCLINATION": 0.0186, "RA_OF_ASC_NODE": 347.9008, "ARG_OF_PERICENTER": 326.4027, "MEAN_ANOMALY": 89.0402, "EPHEMERIS_TYPE": 0, "CLASSIFICATION_TYPE": "U", "NORAD_CAT_ID": 42709, "ELEMENT_SET_NO": 999, "REV_AT_EPOCH": 557, "BSTAR": 0, "MEAN_MOTION_DOT": 7.8e-07, "MEAN_MOTION_DDOT": 0}, "tle": {"line1": "1 42709U 17026A   25348.24820995  .00000078  00000+0  00000+0 0  9992", "line2": "2 42709   0.0186 347.9008 0000295 326.4027  89.0402  1.00268577  5576"}}, "geometry": {"type": "Point", "coordinates": [15.212901288517958, 0.021379484048733202]}}]}